start=new Date('2023-05-28T00:00:00.000Z').valueOf();
sats=[{"BSTAR":"-0.01617500000000","DECAY_DATE":null,"MEAN_MOTION_DDOT":"0.0000000000000","OBJECT_ID":"2023-021H","PERIAPSIS":"406.579","TIME_SYSTEM":"UTC","COUNTRY_CODE":"US","ARG_OF_PERICENTER":"270.1489","PERIOD":"92.744","GP_ID":"232636322","OBJECT_TYPE":"PAYLOAD","EPHEMERIS_TYPE":"0","CLASSIFICATION_TYPE":"U","APOAPSIS":"411.346","LAUNCH_DATE":"2023-02-17","MEAN_MOTION_DOT":"-0.00908564","ELEMENT_SET_NO":"999","REV_AT_EPOCH":"130","MEAN_ANOMALY":"82.7455","INCLINATION":"70.0001","RA_OF_ASC_NODE":"231.5056","OBJECT_NAME":"STARLINK-5495","TLE_LINE1":"1 55635U 23021H   23147.91667824 -.00908564  00000-0 -16175-1 0  9997","CENTER_NAME":"EARTH","ECCENTRICITY":"0.00035120","MEAN_MOTION":"15.52660970","FILE":"3918755","REF_FRAME":"TEME","RCS_SIZE":"LARGE","MEAN_ELEMENT_THEORY":"SGP4","TLE_LINE2":"2 55635  70.0001 231.5056 0003512 270.1489  82.7455 15.52660970  1304","SEMIMAJOR_AXIS":"6787.097","EPOCH":"2023-05-27T22:00:00.999936","NORAD_CAT_ID":"55635","SITE":"AFWTR"},{"MEAN_MOTION":"14.98330550","FILE":"3918755","REF_FRAME":"TEME","OBJECT_NAME":"STARLINK-5218","ECCENTRICITY":"0.00048730","CENTER_NAME":"EARTH","TLE_LINE1":"1 55636U 23021J   23147.69360994 -.00000022  00000-0  59797-5 0  9993","RCS_SIZE":"LARGE","TLE_LINE2":"2 55636  70.0000 248.5969 0004873 268.3044  91.7557 14.98330550 15969","NORAD_CAT_ID":"55636","SEMIMAJOR_AXIS":"6950.191","EPOCH":"2023-05-27T16:38:47.898816","MEAN_ELEMENT_THEORY":"SGP4","SITE":"AFWTR","OBJECT_ID":"2023-021J","PERIAPSIS":"568.669","BSTAR":"0.00000597970000","MEAN_MOTION_DDOT":"0.0000000000000","DECAY_DATE":null,"GP_ID":"232636572","ARG_OF_PERICENTER":"268.3044","PERIOD":"96.107","TIME_SYSTEM":"UTC","COUNTRY_CODE":"US","EPHEMERIS_TYPE":"0","CLASSIFICATION_TYPE":"U","OBJECT_TYPE":"PAYLOAD","INCLINATION":"70.0000","RA_OF_ASC_NODE":"248.5969","LAUNCH_DATE":"2023-02-17","MEAN_MOTION_DOT":"-0.00000022","ELEMENT_SET_NO":"999","APOAPSIS":"575.443","MEAN_ANOMALY":"91.7557","REV_AT_EPOCH":"1596"},{"EPHEMERIS_TYPE":"0","CLASSIFICATION_TYPE":"U","OBJECT_TYPE":"PAYLOAD","INCLINATION":"70.0000","RA_OF_ASC_NODE":"231.5046","LAUNCH_DATE":"2023-02-17","ELEMENT_SET_NO":"999","MEAN_MOTION_DOT":"-0.00905550","APOAPSIS":"411.295","MEAN_ANOMALY":"83.3939","REV_AT_EPOCH":"130","OBJECT_ID":"2023-021K","PERIAPSIS":"406.606","BSTAR":"-0.01611400000000","MEAN_MOTION_DDOT":"0.0000000000000","DECAY_DATE":null,"GP_ID":"232637823","ARG_OF_PERICENTER":"270.3258","PERIOD":"92.744","TIME_SYSTEM":"UTC","COUNTRY_CODE":"US","TLE_LINE2":"2 55637  70.0000 231.5046 0003454 270.3258  83.3939 15.52665141  1304","NORAD_CAT_ID":"55637","EPOCH":"2023-05-27T22:00:00.999936","SEMIMAJOR_AXIS":"6787.085","MEAN_ELEMENT_THEORY":"SGP4","SITE":"AFWTR","MEAN_MOTION":"15.52665141","FILE":"3918755","REF_FRAME":"TEME","OBJECT_NAME":"STARLINK-5062","CENTER_NAME":"EARTH","ECCENTRICITY":"0.00034540","TLE_LINE1":"1 55637U 23021K   23147.91667824 -.00905550  00000-0 -16114-1 0  9994","RCS_SIZE":"LARGE"},{"RCS_SIZE":"LARGE","ECCENTRICITY":"0.00033960","CENTER_NAME":"EARTH","TLE_LINE1":"1 55638U 23021L   23147.69778689 -.00000060  00000-0  27829-5 0  9992","OBJECT_NAME":"STARLINK-5507","REF_FRAME":"TEME","MEAN_MOTION":"14.98330638","FILE":"3918755","SITE":"AFWTR","MEAN_ELEMENT_THEORY":"SGP4","NORAD_CAT_ID":"55638","SEMIMAJOR_AXIS":"6950.191","EPOCH":"2023-05-27T16:44:48.787296","TLE_LINE2":"2 55638  69.9997 248.6100 0003396 270.4450  89.6319 14.98330638 15964","COUNTRY_CODE":"US","TIME_SYSTEM":"UTC","GP_ID":"232637574","PERIOD":"96.107","ARG_OF_PERICENTER":"270.4450","MEAN_MOTION_DDOT":"0.0000000000000","DECAY_DATE":null,"BSTAR":"0.00000278290000","PERIAPSIS":"569.696","OBJECT_ID":"2023-021L","MEAN_ANOMALY":"89.6319","REV_AT_EPOCH":"1596","LAUNCH_DATE":"2023-02-17","ELEMENT_SET_NO":"999","MEAN_MOTION_DOT":"-0.00000060","APOAPSIS":"574.416","RA_OF_ASC_NODE":"248.6100","INCLINATION":"69.9997","OBJECT_TYPE":"PAYLOAD","CLASSIFICATION_TYPE":"U","EPHEMERIS_TYPE":"0"},{"APOAPSIS":"411.240","MEAN_MOTION_DOT":"-0.00907382","LAUNCH_DATE":"2023-02-17","ELEMENT_SET_NO":"999","REV_AT_EPOCH":"129","MEAN_ANOMALY":"86.8655","RA_OF_ASC_NODE":"231.4999","INCLINATION":"70.0000","OBJECT_TYPE":"PAYLOAD","EPHEMERIS_TYPE":"0","CLASSIFICATION_TYPE":"U","TIME_SYSTEM":"UTC","COUNTRY_CODE":"US","ARG_OF_PERICENTER":"270.9720","PERIOD":"92.741","GP_ID":"232636822","BSTAR":"-0.01612700000000","DECAY_DATE":null,"MEAN_MOTION_DDOT":"0.0000000000000","OBJECT_ID":"2023-021M","PERIAPSIS":"406.439","SITE":"AFWTR","MEAN_ELEMENT_THEORY":"SGP4","TLE_LINE2":"2 55639  70.0000 231.4999 0003537 270.9720  86.8655 15.52703260  1290","EPOCH":"2023-05-27T22:00:00.999936","SEMIMAJOR_AXIS":"6786.974","NORAD_CAT_ID":"55639","RCS_SIZE":"LARGE","OBJECT_NAME":"STARLINK-5508","TLE_LINE1":"1 55639U 23021M   23147.91667824 -.00907382  00000-0 -16127-1 0  9995","ECCENTRICITY":"0.00035370","CENTER_NAME":"EARTH","FILE":"3918755","MEAN_MOTION":"15.52703260","REF_FRAME":"TEME"},{"MEAN_ELEMENT_THEORY":"SGP4","TLE_LINE2":"2 55640  69.9998 231.4959 0003325 273.1766  87.9544 15.52728808  1307","NORAD_CAT_ID":"55640","SEMIMAJOR_AXIS":"6786.900","EPOCH":"2023-05-27T22:00:00.999936","SITE":"AFWTR","OBJECT_NAME":"STARLINK-5069","ECCENTRICITY":"0.00033250","CENTER_NAME":"EARTH","TLE_LINE1":"1 55640U 23021N   23147.91667824 -.00903157  00000-0 -16031-1 0  9997","MEAN_MOTION":"15.52728808","FILE":"3918755","REF_FRAME":"TEME","RCS_SIZE":"LARGE","OBJECT_TYPE":"PAYLOAD","EPHEMERIS_TYPE":"0","CLASSIFICATION_TYPE":"U","MEAN_MOTION_DOT":"-0.00903157","LAUNCH_DATE":"2023-02-17","ELEMENT_SET_NO":"999","APOAPSIS":"411.021","MEAN_ANOMALY":"87.9544","REV_AT_EPOCH":"130","INCLINATION":"69.9998","RA_OF_ASC_NODE":"231.4959","BSTAR":"-0.01603100000000","MEAN_MOTION_DDOT":"0.0000000000000","DECAY_DATE":null,"OBJECT_ID":"2023-021N","PERIAPSIS":"406.508","TIME_SYSTEM":"UTC","COUNTRY_CODE":"US","GP_ID":"232637072","ARG_OF_PERICENTER":"273.1766","PERIOD":"92.740"},{"SITE":"AFWTR","TLE_LINE2":"2 55641  69.9999 231.5010 0003448 270.6637  86.3510 15.52693838  1303","NORAD_CAT_ID":"55641","SEMIMAJOR_AXIS":"6787.002","EPOCH":"2023-05-27T22:00:00.999936","MEAN_ELEMENT_THEORY":"SGP4","RCS_SIZE":"LARGE","MEAN_MOTION":"15.52693838","FILE":"3918755","REF_FRAME":"TEME","OBJECT_NAME":"STARLINK-5065","CENTER_NAME":"EARTH","ECCENTRICITY":"0.00034480","TLE_LINE1":"1 55641U 23021P   23147.91667824 -.00905279  00000-0 -16092-1 0  9992","RA_OF_ASC_NODE":"231.5010","INCLINATION":"69.9999","LAUNCH_DATE":"2023-02-17","ELEMENT_SET_NO":"999","MEAN_MOTION_DOT":"-0.00905279","APOAPSIS":"411.207","MEAN_ANOMALY":"86.3510","REV_AT_EPOCH":"130","EPHEMERIS_TYPE":"0","CLASSIFICATION_TYPE":"U","OBJECT_TYPE":"PAYLOAD","GP_ID":"232637324","ARG_OF_PERICENTER":"270.6637","PERIOD":"92.742","TIME_SYSTEM":"UTC","COUNTRY_CODE":"US","OBJECT_ID":"2023-021P","PERIAPSIS":"406.526","BSTAR":"-0.01609200000000","MEAN_MOTION_DDOT":"0.0000000000000","DECAY_DATE":null},{"OBJECT_ID":"2023-021Q","PERIAPSIS":"406.608","BSTAR":"-0.01615600000000","DECAY_DATE":null,"MEAN_MOTION_DDOT":"0.0000000000000","ARG_OF_PERICENTER":"270.9954","PERIOD":"92.745","GP_ID":"232638074","TIME_SYSTEM":"UTC","COUNTRY_CODE":"US","EPHEMERIS_TYPE":"0","CLASSIFICATION_TYPE":"U","OBJECT_TYPE":"PAYLOAD","INCLINATION":"70.0000","RA_OF_ASC_NODE":"231.5086","APOAPSIS":"411.448","MEAN_MOTION_DOT":"-0.00906934","LAUNCH_DATE":"2023-02-17","ELEMENT_SET_NO":"999","REV_AT_EPOCH":"130","MEAN_ANOMALY":"79.4265","FILE":"3918755","MEAN_MOTION":"15.52638418","REF_FRAME":"TEME","OBJECT_NAME":"STARLINK-5478","TLE_LINE1":"1 55642U 23021Q   23147.91667824 -.00906934  00000-0 -16156-1 0  9993","CENTER_NAME":"EARTH","ECCENTRICITY":"0.00035660","RCS_SIZE":"LARGE","TLE_LINE2":"2 55642  70.0000 231.5086 0003566 270.9954  79.4265 15.52638418  1302","EPOCH":"2023-05-27T22:00:00.999936","SEMIMAJOR_AXIS":"6787.163","NORAD_CAT_ID":"55642","MEAN_ELEMENT_THEORY":"SGP4","SITE":"AFWTR"},{"PERIAPSIS":"406.557","OBJECT_ID":"2023-021R","DECAY_DATE":null,"MEAN_MOTION_DDOT":"0.0000000000000","BSTAR":"-0.01603300000000","PERIOD":"92.741","ARG_OF_PERICENTER":"272.2259","GP_ID":"232636323","COUNTRY_CODE":"US","TIME_SYSTEM":"UTC","CLASSIFICATION_TYPE":"U","EPHEMERIS_TYPE":"0","OBJECT_TYPE":"PAYLOAD","INCLINATION":"70.0000","RA_OF_ASC_NODE":"231.4977","REV_AT_EPOCH":"129","MEAN_ANOMALY":"87.2591","APOAPSIS":"411.056","ELEMENT_SET_NO":"999","LAUNCH_DATE":"2023-02-17","MEAN_MOTION_DOT":"-0.00902828","REF_FRAME":"TEME","FILE":"3918755","MEAN_MOTION":"15.52714417","TLE_LINE1":"1 55643U 23021R   23147.91667824 -.00902828  00000-0 -16033-1 0  9996","CENTER_NAME":"EARTH","ECCENTRICITY":"0.00033140","OBJECT_NAME":"STARLINK-5483","RCS_SIZE":"LARGE","SEMIMAJOR_AXIS":"6786.942","EPOCH":"2023-05-27T22:00:00.999936","NORAD_CAT_ID":"55643","TLE_LINE2":"2 55643  70.0000 231.4977 0003314 272.2259  87.2591 15.52714417  1296","MEAN_ELEMENT_THEORY":"SGP4","SITE":"AFWTR"},{"SITE":"AFWTR","MEAN_ELEMENT_THEORY":"SGP4","NORAD_CAT_ID":"55644","SEMIMAJOR_AXIS":"6787.046","EPOCH":"2023-05-27T22:00:00.999936","TLE_LINE2":"2 55644  70.0000 231.5027 0003487 270.7040  84.6639 15.52678785  1309","RCS_SIZE":"LARGE","ECCENTRICITY":"0.00034870","CENTER_NAME":"EARTH","TLE_LINE1":"1 55644U 23021S   23147.91667824 -.00903766  00000-0 -16071-1 0  9991","OBJECT_NAME":"STARLINK-5502","REF_FRAME":"TEME","FILE":"3918755","MEAN_MOTION":"15.52678785","MEAN_ANOMALY":"84.6639","REV_AT_EPOCH":"130","ELEMENT_SET_NO":"999","LAUNCH_DATE":"2023-02-17","MEAN_MOTION_DOT":"-0.00903766","APOAPSIS":"411.277","INCLINATION":"70.0000","RA_OF_ASC_NODE":"231.5027","OBJECT_TYPE":"PAYLOAD","CLASSIFICATION_TYPE":"U","EPHEMERIS_TYPE":"0","COUNTRY_CODE":"US","TIME_SYSTEM":"UTC","GP_ID":"232636573","ARG_OF_PERICENTER":"270.7040","PERIOD":"92.743","MEAN_MOTION_DDOT":"0.0000000000000","DECAY_DATE":null,"BSTAR":"-0.01607100000000","PERIAPSIS":"406.544","OBJECT_ID":"2023-021S"}];
